IRIDIUM 150             
1 43257U 18030J   24199.57920261  .00000462  00000+0  15794-3 0  9990
2 43257  86.3962 222.8191 0002447  85.2017 274.9458 14.34220874329909
IRIDIUM 143             
1 43258U 18030K   24199.49040611  .00000400  00000+0  13582-3 0  9999
2 43258  86.3965 222.9213 0002393  82.6135 277.5333 14.34220845329809
IRIDIUM 152             
1 43479U 18047D   24199.95150642  .00000110  00000+0  32169-4 0  9990
2 43479  86.3964  20.5388 0002172  89.8490 270.2955 14.34217922322261
IRIDIUM 147             
1 43480U 18047E   24199.88808282  .00000103  00000+0  29601-4 0  9993
2 43480  86.3965  20.5581 0002119  92.1783 267.9655 14.34216593322254
IRIDIUM 110             
1 43481U 18047F   24199.89442102  .00000064  00000+0  15823-4 0  9997
2 43481  86.3969  20.6293 0002135 100.8540 259.2896 14.34217289322249
IRIDIUM 162             
1 43482U 18047G   24199.89191678  .00000328  00000+0  91541-4 0  9991
2 43482  86.4488  20.6039 0002271  89.6078 270.5383 14.43274179324268
IRIDIUM 160             
1 43569U 18061A   24199.91002650  .00000471  00000+0  16100-3 0  9993
2 43569  86.3993 349.0086 0001759  98.4565 261.6830 14.34218512313145
